NORAD_CAT_ID,OBJECT_NAME,OBJECT_TYPE,EPOCH,MEAN_MOTION,ECCENTRICITY,INCLINATION,RA_OF_ASC_NODE,ARG_OF_PERICENTER,MEAN_ANOMALY,BSTAR,MEAN_MOTION_DOT,MEAN_MOTION_DDOT,TLE_LINE0,TLE_LINE1,TLE_LINE2,SEMIMAJOR_AXIS,PERIOD,APOGEE,PERIGEE,DECAYED
52554.0,STARLINK-3770,PAYLOAD,2022-06-12 22:00:00,15.38144241,0.0001592,53.2175,147.0895,45.5992,238.6686,-0.02383,-0.00839684,0.0,0 STARLINK-3770,1 52554U 22051X   22163.91667824 -.00839684  00000-0 -23830-1 0  9995,2 52554  53.2175 147.0895 0001592  45.5992 238.6686 15.38144241  5233,6829.734,93.619,452.686,450.512,0.0
52554.0,STARLINK-3770,PAYLOAD,2022-06-13 14:00:01,15.36954862,0.0001402,53.2173,143.9592,46.0671,330.3737,-0.024882,-0.00843058,0.0,0 STARLINK-3770,1 52554U 22051X   22164.58334491 -.00843058  00000-0 -24882-1 0  9998,2 52554  53.2173 143.9592 0001402  46.0671 330.3737 15.36954862  1307,6833.257,93.692,456.08,454.164,0.0
52554.0,STARLINK-3770,PAYLOAD,2022-06-13 22:00:00,15.363568099999998,0.0001671,53.2174,142.3944,37.1223,24.3333,-0.025231,-0.00838837,0.0,0 STARLINK-3770,1 52554U 22051X   22164.91667824 -.00838837  00000-0 -25231-1 0  9992,2 52554  53.2174 142.3944 0001671  37.1223  24.3333 15.36356810  1305,6835.03,93.728,458.037,455.753,0.0
52554.0,STARLINK-3770,PAYLOAD,2022-06-14 14:00:01,15.35166982,0.0001621,53.2171,139.2724,46.0634,103.2707,-0.026299,-0.00841213,0.0,0 STARLINK-3770,1 52554U 22051X   22165.58334491 -.00841213  00000-0 -26299-1 0  9994,2 52554  53.2171 139.2724 0001621  46.0634 103.2707 15.35166982  1303,6838.562,93.801,461.535,459.318,0.0
52554.0,STARLINK-3770,PAYLOAD,2022-06-14 22:00:00,15.34570884,0.000172,53.2173,137.7121,45.8288,146.3716,-0.026754,-0.00839699,0.0,0 STARLINK-3770,1 52554U 22051X   22165.91667824 -.00839699  00000-0 -26754-1 0  9991,2 52554  53.2173 137.7121 0001720  45.8288 146.3716 15.34570884  5537,6840.331999999999,93.837,463.374,461.021,0.0
52554.0,STARLINK-3770,PAYLOAD,2022-06-15 14:00:01,15.33381536,0.0001569,53.2172,134.5982,47.9146,227.87,-0.027946,-0.00844077,0.0,0 STARLINK-3770,1 52554U 22051X   22166.58334491 -.00844077  00000-0 -27946-1 0  9996,2 52554  53.2172 134.5982 0001569  47.9146 227.8700 15.33381536  1305,6843.869000000002,93.91,466.8080000000001,464.66,0.0
52554.0,STARLINK-3770,PAYLOAD,2022-06-15 22:00:00,15.32782734,0.0001498,53.2175,133.0422,48.8872,267.6172,-0.028249,-0.00837685,0.0,0 STARLINK-3770,1 52554U 22051X   22166.91667824 -.00837685  00000-0 -28249-1 0  9996,2 52554  53.2175 133.0422 0001498  48.8872 267.6172 15.32782734  5693,6845.651,93.947,468.542,466.491,0.0
52554.0,STARLINK-3770,PAYLOAD,2022-06-16 02:00:01,15.32485577,0.0001887,53.2172,132.2665,38.5088,118.0856,-0.028575,-0.00839359,0.0,0 STARLINK-3770,1 52554U 22051X   22167.08334491 -.00839359  00000-0 -28575-1 0  9998,2 52554  53.2172 132.2665 0001887  38.5088 118.0856 15.32485577  1304,6846.536,93.965,469.693,467.109,0.0
52554.0,STARLINK-3770,PAYLOAD,2022-06-19 14:00:01,15.26231934,0.0001475,53.2175,116.0284,45.0868,312.081,-0.034771,-0.00841217,0.0,0 STARLINK-3770,1 52554U 22051X   22170.58334491 -.00841217  00000-0 -34771-1 0  9998,2 52554  53.2175 116.0284 0001475  45.0868 312.0810 15.26231934  1301,6865.226,94.35,488.103,486.078,0.0
52554.0,STARLINK-3770,PAYLOAD,2022-06-19 20:00:01,15.25782672,0.0001615,53.2174,114.8738,47.2575,244.0752,-0.035012,-0.00836024,0.0,0 STARLINK-3770,1 52554U 22051X   22170.83334491 -.00836024  00000-0 -35012-1 0  9995,2 52554  53.2174 114.8738 0001615  47.2575 244.0752 15.25782672  6296,6866.573,94.378,489.547,487.329,0.0
52554.0,STARLINK-3770,PAYLOAD,2022-06-19 22:00:00,15.2563539,0.000161,53.2175,114.49,40.4851,348.81199999999984,-0.0353029999999999,-0.00838974,0.0,0 STARLINK-3770,1 52554U 22051X   22170.91667824 -.00838974  00000-0 -35303-1 0  9992,2 52554  53.2175 114.4900 0001610  40.4851 348.8120 15.25635390  1304,6867.015,94.387,489.986,487.775,0.0
52554.0,STARLINK-3770,PAYLOAD,2022-06-20 14:00:01,15.24442972,0.0001703,53.2175,111.4176,38.5257,52.8831,-0.036538,-0.00837749,0.0,0 STARLINK-3770,1 52554U 22051X   22171.58334491 -.00837749  00000-0 -36538-1 0  9997,2 52554  53.2175 111.4176 0001703  38.5257  52.8831 15.24442972  1309,6870.596,94.461,493.631,491.291,0.0
52554.0,STARLINK-3770,PAYLOAD,2022-06-20 22:00:00,15.2384737,0.0001798,53.2174,109.8834,39.9261,81.4644,-0.037194,-0.00837698,0.0,0 STARLINK-3770,1 52554U 22051X   22171.91667824 -.00837698  00000-0 -37194-1 0  9995,2 52554  53.2174 109.8834 0001798  39.9261  81.4644 15.23847370  6455,6872.386,94.498,495.486,493.015,0.0
52554.0,STARLINK-3770,PAYLOAD,2022-06-21 14:00:01,15.22655294,0.0001839,53.2174,106.8192,40.8196,138.3876,-0.038463,-0.00836122,0.0,0 STARLINK-3770,1 52554U 22051X   22172.58334491 -.00836122  00000-0 -38463-1 0  9991,2 52554  53.2174 106.8192 0001839  40.8196 138.3876 15.22655294  1302,6875.972,94.572,499.102,496.573,0.0
52554.0,STARLINK-3770,PAYLOAD,2022-06-21 22:00:00,15.2205948,0.0001869,53.2175,105.2895,42.3417,164.6998,-0.039142,-0.00835973,0.0,0 STARLINK-3770,1 52554U 22051X   22172.91667824 -.00835973  00000-0 -39142-1 0  9995,2 52554  53.2175 105.2895 0001869  42.3417 164.6998 15.22059480  1304,6877.766,94.609,500.917,498.346,0.0
52554.0,STARLINK-3770,PAYLOAD,2022-06-22 00:00:02,15.21910598,0.0001719,53.2173,104.9077,41.8464,262.1049,-0.039299,-0.00835634,0.0,0 STARLINK-3770,1 52554U 22051X   22173.00002315 -.00835634  00000-0 -39299-1 0  9991,2 52554  53.2173 104.9077 0001719  41.8464 262.1049 15.21910598  6626,6878.215,94.618,501.262,498.898,0.0
52554.0,STARLINK-3770,PAYLOAD,2022-06-22 14:00:01,15.20868314,0.000174,53.2175,102.2333,42.5753,217.9881,-0.040547,-0.00836006,0.0,0 STARLINK-3770,1 52554U 22051X   22173.58334491 -.00836006  00000-0 -40547-1 0  9999,2 52554  53.2175 102.2333 0001740  42.5753 217.9881 15.20868314  1306,6881.357,94.683,504.42,502.025,0.0
52554.0,STARLINK-3770,PAYLOAD,2022-06-22 22:00:00,15.20272708,0.0001763,53.2174,100.708,42.3598,243.8903,-0.041267,-0.00836081,0.0,0 STARLINK-3770,1 52554U 22051X   22173.91667824 -.00836081  00000-0 -41267-1 0  9998,2 52554  53.2174 100.7080 0001763  42.3598 243.8903 15.20272708  6761,6883.154,94.72,506.233,503.806,0.0
52554.0,STARLINK-3770,PAYLOAD,2022-06-23 14:00:01,15.19080751,0.000179,53.2174,97.6601,34.8837,300.5941,-0.042696,-0.0084524,0.0,0 STARLINK-3770,1 52554U 22051X   22174.58334491 -.00845240  00000-0 -42696-1 0  9997,2 52554  53.2174  97.6601 0001790  34.8837 300.5941 15.19080751  1307,6886.754,94.794,509.852,507.387,0.0
52554.0,STARLINK-3770,PAYLOAD,2022-06-23 22:00:00,15.18486528,0.0001740999999999,53.2175,96.139,37.3053,321.7112,-0.043556,-0.0084733999999999,0.0,0 STARLINK-3770,1 52554U 22051X   22174.91667824 -.00847340  00000-0 -43556-1 0  9992,2 52554  53.2175  96.1390 0001741  37.3053 321.7112 15.18486528  6919,6888.551,94.831,511.615,509.217,0.0
52554.0,STARLINK-3770,PAYLOAD,2022-06-24 14:00:01,15.17293084,0.0001575999999999,53.2174,93.0994,41.6444,2.3057,-0.044918,-0.00844376,0.0,0 STARLINK-3770,1 52554U 22051X   22175.58334491 -.00844376  00000-0 -44918-1 0  9996,2 52554  53.2174  93.0994 0001576  41.6444   2.3057 15.17293084  1302,6892.163000000001,94.906,515.114,512.942,0.0
52554.0,STARLINK-3770,PAYLOAD,2022-06-24 22:00:01,15.16699398,0.0001771,53.2174,91.5827,38.0599,27.3443,-0.045872,-0.00847504,0.0,0 STARLINK-3770,1 52554U 22051X   22175.91668981 -.00847504  00000-0 -45872-1 0  9993,2 52554  53.2174  91.5827 0001771  38.0599  27.3443 15.16699398  7060,6893.9609999999975,94.943,517.047,514.605,0.0
52554.0,STARLINK-3770,PAYLOAD,2022-06-25 14:00:01,15.15505891,0.0001705,53.2173,88.5512,41.0742,64.9058,-0.047259,-0.00844033,0.0,0 STARLINK-3770,1 52554U 22051X   22176.58334491 -.00844033  00000-0 -47259-1 0  9998,2 52554  53.2173  88.5512 0001705  41.0742  64.9058 15.15505891  1300,6897.58,95.018,520.621,518.269,0.0
52554.0,STARLINK-3770,PAYLOAD,2022-06-25 22:00:00,15.14911284,0.0001942,53.2173,87.0388,37.0701,88.1538,-0.048172,-0.00845792,0.0,0 STARLINK-3770,1 52554U 22051X   22176.91667824 -.00845792  00000-0 -48172-1 0  9992,2 52554  53.2173  87.0388 0001942  37.0701  88.1538 15.14911284  7211,6899.385,95.055,522.59,519.91,0.0
52554.0,STARLINK-3770,PAYLOAD,2022-06-26 14:00:01,15.13719112,0.000192,53.2173,84.0154,38.3353,123.2953,-0.04974,-0.00844395,0.0,0 STARLINK-3770,1 52554U 22051X   22177.58335648 -.00844395  00000-0 -49740-1 0  9992,2 52554  53.2173  84.0154 0001920  38.3353 123.2953 15.13719112  1303,6903.007,95.13,526.197,523.547,0.0
52554.0,STARLINK-3770,PAYLOAD,2022-06-26 20:00:01,15.13273817,0.0001847,53.2175,82.8839,37.1016,47.3554,-0.050518,-0.00846713,0.0,0 STARLINK-3770,1 52554U 22051X   22177.83334491 -.00846713  00000-0 -50518-1 0  9996,2 52554  53.2175  82.8839 0001847  37.1016  47.3554 15.13273817  7353,6904.361,95.158,527.501,524.951,0.0
52554.0,STARLINK-3770,PAYLOAD,2022-06-26 22:00:00,15.13123079,0.0001966,53.2174,82.5073,40.3205,138.3442,-0.050537,-0.00843676,0.0,0 STARLINK-3770,1 52554U 22051X   22177.91667824 -.00843676  00000-0 -50537-1 0  9990,2 52554  53.2174  82.5073 0001966  40.3205 138.3442 15.13123079  1307,6904.82,95.167,528.0419999999998,525.327,0.0
52554.0,STARLINK-3770,PAYLOAD,2022-06-27 14:00:01,15.11932085,0.0001854,53.2173,79.4921,42.8835,167.8297,-0.052296,-0.00844273,0.0,0 STARLINK-3770,1 52554U 22051X   22178.58334491 -.00844273  00000-0 -52296-1 0  9993,2 52554  53.2173  79.4921 0001854  42.8835 167.8297 15.11932085  1303,6908.445,95.242,531.591,529.029,0.0
52554.0,STARLINK-3770,PAYLOAD,2022-06-27 22:00:00,15.11335243,0.0001935,53.2175,77.9883,41.8627,183.8004,-0.05303,-0.0084213,0.0,0 STARLINK-3770,1 52554U 22051X   22178.91667824 -.00842130  00000-0 -53030-1 0  9996,2 52554  53.2175  77.9883 0001935  41.8627 183.8004 15.11335243  7520,6910.264,95.28,533.466,530.7919999999998,0.0
